OBJECT_NAME,OBJECT_ID,EPOCH,MEAN_MOTION,ECCENTRICITY,INCLINATION,RA_OF_ASC_NODE,ARG_OF_PERICENTER,MEAN_ANOMALY,EPHEMERIS_TYPE,CLASSIFICATION_TYPE,NORAD_CAT_ID,ELEMENT_SET_NO,REV_AT_EPOCH,BSTAR,MEAN_MOTION_DOT,MEAN_MOTION_DDOT
TYVAK-0173,2021-059P,2026-07-14T17:55:27.598944,14.81970660,.00072767,96.0075,265.2528,301.8612,58.1898,0,U,48892,999,27232,.10421426E-3,.794E-5,0
MANDRAKE 2 ABLE,2021-059AE,2026-07-14T18:30:10.791072,15.56058811,.00037592,97.7021,27.6812,236.6478,123.4417,0,U,48907,999,28141,.19591155E-3,.13551E-3,0
MANDRAKE 2 BAKER,2021-059AF,2026-07-14T11:46:44.263776,15.60944771,.00026732,97.6985,30.4471,221.0182,139.0874,0,U,48908,999,28155,.20716893E-3,.17241E-3,0
PACE-1,2021-059AG,2026-07-14T12:50:57.372000,15.85188031,.00033147,97.6714,36.8706,179.7960,180.3311,0,U,48909,999,28212,.35721967E-3,.84606E-3,0
YAM-3,2021-059AN,2026-07-14T21:53:43.069056,15.49143747,.00039133,97.6989,24.6918,243.4410,116.6439,0,U,48915,999,28128,.13271207E-3,.7115E-4,0
FARADAY_PHOENIX,2021-059AX,2026-07-14T12:46:26.250528,15.86843499,.00058733,97.6763,36.7767,199.9387,160.1655,0,U,48924,999,28198,.53856597E-3,.139204E-2,0
DEMO8 (TENZING),2021-059CA,2026-07-14T20:07:30.850464,15.56018345,.00056847,97.7005,31.3838,233.2248,126.8485,0,U,48951,999,28160,.18993036E-3,.13119E-3,0
FENGYUN 3E,2021-062A,2026-07-14T23:10:31.653696,14.19906111,.00022572,98.7495,199.0642,39.6218,320.5123,0,U,49008,999,26052,-.70119042E-4,-.193E-5,0
ISS (NAUKA),2021-066A,2026-07-14T20:43:00.740064,15.49010075,.00066869,51.6309,163.1264,296.7335,63.2969,0,U,49044,999,61070,.65608069E-4,.3167E-4,0
STARLINK-3100,2021-082Q,2026-07-14T19:29:53.713536,14.98322106,.00029008,70.0011,333.9248,264.9483,95.1345,0,U,49144,999,26502,-.61225384E-4,-.823E-5,0
CUTE,2021-088D,2026-07-14T19:27:20.152224,16.21314163,.0011345,97.3987,298.1083,285.4989,74.5047,0,U,49263,999,26697,.11013439E-2,.2317248E-1,.2439247E-5
2021-091B,2021-091B,2026-07-14T23:56:56.595264,15.18680730,.00120204,97.4468,23.1515,308.9637,51.0525,0,U,49316,999,26320,.82316466E-4,.1641E-4,0
SDGSAT 1,2021-100A,2026-07-14T23:03:10.724256,15.19236023,.00097787,97.2621,241.8475,163.5673,196.5881,0,U,49387,999,26013,.49150421E-4,.971E-5,0
TEIKYOSAT-4 (OORURI),2021-102B,2026-07-14T23:03:57.056256,15.09598159,.00117097,97.3665,224.3649,189.2866,170.8149,0,U,49396,999,25691,.76005461E-4,.1162E-4,0
Z-SAT,2021-102E,2026-07-14T22:37:50.233728,15.18460434,.00175641,97.3315,230.4241,145.1693,215.0695,0,U,49399,999,25765,.61682438E-4,.1209E-4,0
HIBARI,2021-102F,2026-07-14T16:48:03.862944,15.32272167,.00133175,97.3222,241.2968,102.9044,257.3687,0,U,49400,999,25840,.20535027E-3,.6337E-4,0
KOSEN-1,2021-102H,2026-07-14T15:55:55.445952,15.27209519,.00154085,97.3172,237.2912,109.3204,250.9703,0,U,49402,999,25821,.17147697E-3,.4514E-4,0
GLOBAL-14,2021-106A,2026-07-14T20:03:03.778560,15.51815876,.00177223,42.0034,126.6067,221.7010,138.2484,0,U,49469,999,26242,.26659441E-3,.16173E-3,0
GAOFEN-3 02,2021-109A,2026-07-15T00:11:47.073408,14.42219734,.00013522,98.4087,203.7099,267.9430,92.1605,0,U,49495,999,24432,-.34431669E-4,-.157E-5,0
GLOBAL-12,2021-115BA,2026-07-14T12:39:15.638112,15.55307022,.00028592,53.1946,272.9118,70.9256,289.2065,0,U,49772,999,26015,.28636433E-3,.1933E-3,0
GLOBAL-13,2021-115BB,2026-07-14T20:13:20.501760,15.47101599,.00006186,53.1976,283.0159,157.3954,202.7082,0,U,49773,999,26004,.23790896E-3,.11832E-3,0
GLOBAL-17,2021-120A,2026-07-14T14:43:41.492352,15.53698139,.00133494,41.9933,245.6865,86.3012,273.9359,0,U,49949,999,25916,.25785739E-3,.16705E-3,0
GLOBAL-16,2021-120B,2026-07-14T14:25:18.366528,15.51465690,.00114291,41.9936,250.0240,75.5872,284.6240,0,U,49950,999,25910,.24918033E-3,.14845E-3,0
XW-3 (CAS-9),2021-131B,2026-07-14T23:03:39.480768,14.41381038,.00046402,98.4993,288.2007,30.9838,329.1624,0,U,50466,999,23911,.55326702E-4,.135E-5,0
ION SCV-004,2022-002K,2026-07-14T16:37:51.485664,15.30705241,.00056866,97.2820,252.8371,249.3579,110.7053,0,U,50993,999,24950,.10001898E-3,.2894E-4,0
ETV-A1,2022-002CE,2026-07-14T22:28:40.092096,15.41230840,.00038985,97.2867,262.1701,226.7296,133.3626,0,U,51060,999,25011,.15888126E-3,.6517E-4,0
BRO-5,2022-002CF,2026-07-14T21:57:58.347360,15.48870710,.00053525,97.2991,269.8573,204.6016,155.4980,0,U,51061,999,25054,.36298627E-3,.19491E-3,0
LUDI TANCE 1-01A (L-SAR 01A),2022-007A,2026-07-15T00:18:49.762080,14.88419577,.00016287,97.8105,203.0380,91.0051,269.1352,0,U,51284,999,24261,.361505E-4,.281E-5,0
LUDI TANCE 1-01B (L-SAR 01B),2022-018A,2026-07-14T23:30:26.072352,14.88413635,.0001613,97.8110,203.0031,91.5979,268.5422,0,U,51822,999,23784,.37621298E-4,.294E-5,0
