TYVAK-0173              
1 48892U 21059P   26195.74684721  .00000794  00000+0  10421-3 0  9990
2 48892  96.0075 265.2528 0007276 301.8612  58.1898 14.81970660272320
MANDRAKE 2 ABLE         
1 48907U 21059AE  26195.77095823  .00013551  00000+0  19591-3 0  9991
2 48907  97.7021  27.6812 0003759 236.6478 123.4417 15.56058811281410
MANDRAKE 2 BAKER        
1 48908U 21059AF  26195.49079009  .00017241  00000+0  20717-3 0  9991
2 48908  97.6985  30.4471 0002673 221.0182 139.0874 15.60944771281555
PACE-1                  
1 48909U 21059AG  26195.53538625  .00084606  00000+0  35722-3 0  9992
2 48909  97.6714  36.8706 0003314 179.7960 180.3311 15.85188031282128
YAM-3                   
1 48915U 21059AN  26195.91230404  .00007115  00000+0  13271-3 0  9990
2 48915  97.6989  24.6918 0003913 243.4410 116.6439 15.49143747281287
FARADAY_PHOENIX         
1 48924U 21059AX  26195.53224827  .00139204  00000+0  53857-3 0  9999
2 48924  97.6763  36.7767 0005873 199.9387 160.1655 15.86843499281981
DEMO8 (TENZING)         
1 48951U 21059CA  26195.83855151  .00013119  00000+0  18993-3 0  9990
2 48951  97.7005  31.3838 0005684 233.2248 126.8485 15.56018345281609
FENGYUN 3E              
1 49008U 21062A   26195.96564414 -.00000193  00000+0 -70119-4 0  9990
2 49008  98.7495 199.0642 0002257  39.6218 320.5123 14.19906111260525
ISS (NAUKA)             
1 49044U 21066A   26195.86320301  .00003167  00000+0  65608-4 0  9997
2 49044  51.6309 163.1264 0006686 296.7335  63.2969 15.49010075610702
STARLINK-3100           
1 49144U 21082Q   26195.81242724 -.00000823  00000+0 -61225-4 0  9992
2 49144  70.0011 333.9248 0002900 264.9483  95.1345 14.98322106265020
CUTE                    
1 49263U 21088D   26195.81064991  .02317248  24392-5  11013-2 0  9994
2 49263  97.3987 298.1083 0011345 285.4989  74.5047 16.21314163266974
2021-091B               
1 49316U 21091B   26195.99787726  .00001641  00000+0  82316-4 0  9999
2 49316  97.4468  23.1515 0012020 308.9637  51.0525 15.18680730263201
SDGSAT 1                
1 49387U 21100A   26195.96054079  .00000971  00000+0  49150-4 0  9997
2 49387  97.2621 241.8475 0009778 163.5673 196.5881 15.19236023260135
TEIKYOSAT-4 (OORURI)    
1 49396U 21102B   26195.96107704  .00001162  00000+0  76005-4 0  9995
2 49396  97.3665 224.3649 0011709 189.2866 170.8149 15.09598159256912
Z-SAT                   
1 49399U 21102E   26195.94294252  .00001209  00000+0  61682-4 0  9998
2 49399  97.3315 230.4241 0017564 145.1693 215.0695 15.18460434257651
HIBARI                  
1 49400U 21102F   26195.70004471  .00006337  00000+0  20535-3 0  9995
2 49400  97.3222 241.2968 0013317 102.9044 257.3687 15.32272167258404
KOSEN-1                 
1 49402U 21102H   26195.66383618  .00004514  00000+0  17148-3 0  9996
2 49402  97.3172 237.2912 0015408 109.3204 250.9703 15.27209519258218
GLOBAL-14               
1 49469U 21106A   26195.83546040  .00016173  00000+0  26659-3 0  9993
2 49469  42.0034 126.6067 0017722 221.7010 138.2484 15.51815876262420
GAOFEN-3 02             
1 49495U 21109A   26196.00818372 -.00000157  00000+0 -34432-4 0  9991
2 49495  98.4087 203.7099 0001352 267.9430  92.1605 14.42219734244326
GLOBAL-12               
1 49772U 21115BA  26195.52726433  .00019330  00000+0  28636-3 0  9997
2 49772  53.1946 272.9118 0002859  70.9256 289.2065 15.55307022260158
GLOBAL-13               
1 49773U 21115BB  26195.84259840  .00011832  00000+0  23791-3 0  9992
2 49773  53.1976 283.0159 0000618 157.3954 202.7082 15.47101599260045
GLOBAL-17               
1 49949U 21120A   26195.61367468  .00016705  00000+0  25786-3 0  9994
2 49949  41.9933 245.6865 0013349  86.3012 273.9359 15.53698139259163
GLOBAL-16               
1 49950U 21120B   26195.60090702  .00014845  00000+0  24918-3 0  9998
2 49950  41.9936 250.0240 0011429  75.5872 284.6240 15.51465690259100
XW-3 (CAS-9)            
1 50466U 21131B   26195.96087362  .00000135  00000+0  55327-4 0  9997
2 50466  98.4993 288.2007 0004640  30.9838 329.1624 14.41381038239113
ION SCV-004             
1 50993U 22002K   26195.69295701  .00002894  00000+0  10002-3 0  9992
2 50993  97.2820 252.8371 0005686 249.3579 110.7053 15.30705241249503
ETV-A1                  
1 51060U 22002CE  26195.93657514  .00006517  00000+0  15888-3 0  9992
2 51060  97.2867 262.1701 0003898 226.7296 133.3626 15.41230840250115
BRO-5                   
1 51061U 22002CF  26195.91525865  .00019491  00000+0  36299-3 0  9998
2 51061  97.2991 269.8573 0005352 204.6016 155.4980 15.48870710250545
LUDI TANCE 1-01A (L-SA*)
1 51284U 22007A   26196.01307595  .00000281  00000+0  36150-4 0  9994
2 51284  97.8105 203.0380 0001628  91.0051 269.1352 14.88419577242618
LUDI TANCE 1-01B (L-SA*)
1 51822U 22018A   26195.97946843  .00000294  00000+0  37621-4 0  9991
2 51822  97.8110 203.0031 0001613  91.5979 268.5422 14.88413635237842
